{
  "type": "FeatureCollection",
  "features": [
    {
      "type": "Feature",
      "properties": { "ligne": "A", "couleur": "#E2001A" },
      "geometry": {
        "type": "LineString",
        "coordinates": [
          [7.6970, 48.5947], [7.7050, 48.5920], [7.7130, 48.5902],
          [7.7200, 48.5878], [7.7280, 48.5858], [7.7346, 48.5854],
          [7.7397, 48.5807], [7.7425, 48.5789], [7.7442, 48.5834],
          [7.7455, 48.5824], [7.7477, 48.5833], [7.7492, 48.5820],
          [7.7518, 48.5830], [7.7583, 48.5815], [7.7628, 48.5794],
          [7.7675, 48.5840], [7.7710, 48.5879], [7.7751, 48.5918]
        ]
      }
    },
    {
      "type": "Feature",
      "properties": { "ligne": "A", "couleur": "#E2001A" },
      "geometry": {
        "type": "LineString",
        "coordinates": [
          [7.7442, 48.5834], [7.7380, 48.5808],
          [7.7320, 48.5782], [7.7257, 48.5727], [7.7225, 48.5686],
          [7.7205, 48.5629], [7.7234, 48.5572]
        ]
      }
    },
    {
      "type": "Feature",
      "properties": { "ligne": "B", "couleur": "#0065BD" },
      "geometry": {
        "type": "LineString",
        "coordinates": [
          [7.7272, 48.5745], [7.7340, 48.5730], [7.7350, 48.5712],
          [7.7420, 48.5750], [7.7477, 48.5833], [7.7509, 48.5813],
          [7.7566, 48.5860], [7.7614, 48.5882], [7.7660, 48.5935],
          [7.7710, 48.6002]
        ]
      }
    },
    {
      "type": "Feature",
      "properties": { "ligne": "C", "couleur": "#82368C" },
      "geometry": {
        "type": "LineString",
        "coordinates": [
          [7.6802, 48.5897], [7.6875, 48.5905], [7.7012, 48.5889],
          [7.7160, 48.5855], [7.7320, 48.5836], [7.7420, 48.5830],
          [7.7455, 48.5824], [7.7487, 48.5834], [7.7509, 48.5813],
          [7.7132, 48.5241], [7.7185, 48.5292],
          [7.6985, 48.5578]
        ]
      }
    },
    {
      "type": "Feature",
      "properties": { "ligne": "D", "couleur": "#009A44" },
      "geometry": {
        "type": "LineString",
        "coordinates": [
          [7.6712, 48.5857], [7.6808, 48.5834], [7.6902, 48.5815],
          [7.7012, 48.5809], [7.7098, 48.5812], [7.7165, 48.5818],
          [7.7238, 48.5824], [7.7320, 48.5836], [7.7346, 48.5854],
          [7.7425, 48.5789], [7.7442, 48.5834], [7.7477, 48.5833],
          [7.7492, 48.5820], [7.7628, 48.5794]
        ]
      }
    },
    {
      "type": "Feature",
      "properties": { "ligne": "E", "couleur": "#FF8200" },
      "geometry": {
        "type": "LineString",
        "coordinates": [
          [7.7477, 48.5833], [7.7440, 48.5812], [7.7420, 48.5785],
          [7.7390, 48.5750], [7.7350, 48.5712], [7.7300, 48.5680],
          [7.7200, 48.5640], [7.7100, 48.5610], [7.6980, 48.5570]
        ]
      }
    },
    {
      "type": "Feature",
      "properties": { "ligne": "F", "couleur": "#00B5E2" },
      "geometry": {
        "type": "LineString",
        "coordinates": [
          [7.7477, 48.5833], [7.7487, 48.5834], [7.7509, 48.5813],
          [7.7511, 48.5817], [7.7586, 48.5768], [7.7655, 48.5721]
        ]
      }
    }
  ]
}
